[
  {
    "code": "BJ",
    "short": "京",
    "zipcode": 110000,
    "name": "北京市",
    "province": 11
  },
  {
    "code": "TJ",
    "short": "津",
    "zipcode": 120000,
    "name": "天津市",
    "province": 12
  },
  {
    "code": "HE",
    "short": "冀",
    "zipcode": 130000,
    "name": "河北省",
    "province": 13
  },
  {
    "code": "SX",
    "short": "晋",
    "zipcode": 140000,
    "name": "山西省",
    "province": 14
  },
  {
    "code": "NM",
    "short": "蒙",
    "zipcode": 150000,
    "name": "内蒙古自治区",
    "province": 15
  },
  {
    "code": "LN",
    "short": "辽",
    "zipcode": 210000,
    "name": "辽宁省",
    "province": 21
  },
  {
    "code": "JL",
    "short": "吉",
    "zipcode": 220000,
    "name": "吉林省",
    "province": 22
  },
  {
    "code": "HL",
    "short": "黑",
    "zipcode": 230000,
    "name": "黑龙江省",
    "province": 23
  },
  {
    "code": "SH",
    "short": "沪",
    "zipcode": 310000,
    "name": "上海市",
    "province": 31
  },
  {
    "code": "JS",
    "short": "苏",
    "zipcode": 320000,
    "name": "江苏省",
    "province": 32
  },
  {
    "code": "ZJ",
    "short": "浙",
    "zipcode": 330000,
    "name": "浙江省",
    "province": 33
  },
  {
    "code": "AH",
    "short": "皖",
    "zipcode": 340000,
    "name": "安徽省",
    "province": 34
  },
  {
    "code": "FJ",
    "short": "闽",
    "zipcode": 350000,
    "name": "福建省",
    "province": 35
  },
  {
    "code": "JX",
    "short": "赣",
    "zipcode": 360000,
    "name": "江西省",
    "province": 36
  },
  {
    "code": "SD",
    "short": "鲁",
    "zipcode": 370000,
    "name": "山东省",
    "province": 37
  },
  {
    "code": "HA",
    "short": "豫",
    "zipcode": 410000,
    "name": "河南省",
    "province": 41
  },
  {
    "code": "HB",
    "short": "鄂",
    "zipcode": 420000,
    "name": "湖北省",
    "province": 42
  },
  {
    "code": "HN",
    "short": "湘",
    "zipcode": 430000,
    "name": "湖南省",
    "province": 43
  },
  {
    "code": "GD",
    "short": "粤",
    "zipcode": 440000,
    "name": "广东省",
    "province": 44
  },
  {
    "code": "GX",
    "short": "桂",
    "zipcode": 450000,
    "name": "广西壮族自治区",
    "province": 45
  },
  {
    "code": "HI",
    "short": "琼",
    "zipcode": 460000,
    "name": "海南省",
    "province": 46
  },
  {
    "code": "CQ",
    "short": "渝",
    "zipcode": 500000,
    "name": "重庆市",
    "province": 50
  },
  {
    "code": "SC",
    "short": "川",
    "zipcode": 510000,
    "name": "四川省",
    "province": 51
  },
  {
    "code": "GZ",
    "short": "贵",
    "zipcode": 520000,
    "name": "贵州省",
    "province": 52
  },
  {
    "code": "YN",
    "short": "云",
    "zipcode": 530000,
    "name": "云南省",
    "province": 53
  },
  {
    "code": "XZ",
    "short": "藏",
    "zipcode": 540000,
    "name": "西藏自治区",
    "province": 54
  },
  {
    "code": "SN",
    "short": "陕",
    "zipcode": 610000,
    "name": "陕西省",
    "province": 61
  },
  {
    "code": "GS",
    "short": "甘",
    "zipcode": 620000,
    "name": "甘肃省",
    "province": 62
  },
  {
    "code": "QH",
    "short": "青",
    "zipcode": 630000,
    "name": "青海省",
    "province": 63
  },
  {
    "code": "NX",
    "short": "宁",
    "zipcode": 640000,
    "name": "宁夏回族自治区",
    "province": 64
  },
  {
    "code": "XJ",
    "short": "新",
    "zipcode": 650000,
    "name": "新疆维吾尔自治区",
    "province": 65
  },
  {
    "code": "TW",
    "short": "台",
    "zipcode": 710000,
    "name": "台湾省",
    "province": 71
  },
  {
    "code": "HK",
    "short": "港",
    "zipcode": 810000,
    "name": "香港特别行政区",
    "province": 81
  },
  {
    "code": "MO",
    "short": "澳",
    "zipcode": 820000,
    "name": "澳门特别行政区",
    "province": 82
  }
]
